{"type": "FeatureCollection", "features": [ {"type": "Feature", "properties": {"norad_id": 66627, "name": "STARLINK-35904", "group": "last-30-days", "lat": -13.121972483189879, "lon": 33.01498248619726, "alt_km": 378.2035566871573, "timestamp": "2025-12-09T11:33:53.576419+00:00", "meta": {"OBJECT_NAME": "STARLINK-35904", "OBJECT_ID": "2025-271L", "EPOCH": "2025-12-09T04:00:01.998720", "MEAN_MOTION": 15.65524314, "ECCENTRICITY": 0.0001055, "INCLINATION": 53.1586, "RA_OF_ASC_NODE": 204.4921, "ARG_OF_PERICENTER": 112.2324, "MEAN_ANOMALY": 107.5903, "EPHEMERIS_TYPE": 0, "CLASSIFICATION_TYPE": "U", "NORAD_CAT_ID": 66627, "ELEMENT_SET_NO": 999, "REV_AT_EPOCH": 351, "BSTAR": -0.022173, "MEAN_MOTION_DOT": -0.01994449, "MEAN_MOTION_DDOT": 0}, "tle": {"line1": "1 66627U 25271L   25343.16668980 -.01994449  00000+0 -22173-1 0  9992", "line2": "2 66627  53.1586 204.4921 0001055 112.2324 107.5903 15.65524314  3515"}}, "geometry": {"type": "Point", "coordinates": [33.01498248619726, -13.121972483189879]}}, {"type": "Feature", "properties": {"norad_id": 66628, "name": "STARLINK-35862", "group": "last-30-days", "lat": -14.630143992158095, "lon": 34.23208798911255, "alt_km": 378.46548387283565, "timestamp": "2025-12-09T11:33:53.576430+00:00", "meta": {"OBJECT_NAME": "STARLINK-35862", "OBJECT_ID": "2025-271M", "EPOCH": "2025-12-09T04:00:01.998720", "MEAN_MOTION": 15.65538196, "ECCENTRICITY": 0.0001095, "INCLINATION": 53.1586, "RA_OF_ASC_NODE": 204.4882, "ARG_OF_PERICENTER": 103.9322, "MEAN_ANOMALY": 117.8008, "EPHEMERIS_TYPE": 0, "CLASSIFICATION_TYPE": "U", "NORAD_CAT_ID": 66628, "ELEMENT_SET_NO": 999, "REV_AT_EPOCH": 367, "BSTAR": -0.022372, "MEAN_MOTION_DOT": -0.02011184, "MEAN_MOTION_DDOT": 0}, "tle": {"line1": "1 66628U 25271M   25343.16668980 -.02011184  00000+0 -22372-1 0  9991", "line2": "2 66628  53.1586 204.4882 0001095 103.9322 117.8008 15.65538196  3671"}}, "geometry": {"type": "Point", "coordinates": [34.23208798911255, -14.630143992158095]}}, {"type": "Feature", "properties": {"norad_id": 66629, "name": "STARLINK-35956", "group": "last-30-days", "lat": -16.131243559496525, "lon": 35.46585712612706, "alt_km": 378.64428456817586, "timestamp": "2025-12-09T11:33:53.576440+00:00", "meta": {"OBJECT_NAME": "STARLINK-35956", "OBJECT_ID": "2025-271N", "EPOCH": "2025-12-09T04:00:01.998720", "MEAN_MOTION": 15.65536656, "ECCENTRICITY": 9.79e-05, "INCLINATION": 53.1586, "RA_OF_ASC_NODE": 204.4846, "ARG_OF_PERICENTER": 96.0454, "MEAN_ANOMALY": 127.6098, "EPHEMERIS_TYPE": 0, "CLASSIFICATION_TYPE": "U", "NORAD_CAT_ID": 66629, "ELEMENT_SET_NO": 999, "REV_AT_EPOCH": 367, "BSTAR": -0.022397, "MEAN_MOTION_DOT": -0.02012965, "MEAN_MOTION_DDOT": 0}, "tle": {"line1": "1 66629U 25271N   25343.16668980 -.02012965  00000+0 -22397-1 0  9997", "line2": "2 66629  53.1586 204.4846 0000979  96.0454 127.6098 15.65536656  3677"}}, "geometry": {"type": "Point", "coordinates": [35.46585712612706, -16.131243559496525]}}, {"type": "Feature", "properties": {"norad_id": 66630, "name": "STARLINK-35949", "group": "last-30-days", "lat": -17.62298477953848, "lon": 36.71522272497723, "alt_km": 378.83537314721434, "timestamp": "2025-12-09T11:33:53.576451+00:00", "meta": {"OBJECT_NAME": "STARLINK-35949", "OBJECT_ID": "2025-271P", "EPOCH": "2025-12-09T04:00:01.998720", "MEAN_MOTION": 15.65536068, "ECCENTRICITY": 0.0001084, "INCLINATION": 53.1587, "RA_OF_ASC_NODE": 204.4796, "ARG_OF_PERICENTER": 100.5158, "MEAN_ANOMALY": 125.0527, "EPHEMERIS_TYPE": 0, "CLASSIFICATION_TYPE": "U", "NORAD_CAT_ID": 66630, "ELEMENT_SET_NO": 999, "REV_AT_EPOCH": 367, "BSTAR": -0.022336, "MEAN_MOTION_DOT": -0.02008179, "MEAN_MOTION_DDOT": 0}, "tle": {"line1": "1 66630U 25271P   25343.16668980 -.02008179  00000+0 -22336-1 0  9994", "line2": "2 66630  53.1587 204.4796 0001084 100.5158 125.0527 15.65536068  3670"}}, "geometry": {"type": "Point", "coordinates": [36.71522272497723, -17.62298477953848]}}, {"type": "Feature", "properties": {"norad_id": 66631, "name": "STARLINK-35965", "group": "last-30-days", "lat": -19.107384200628232, "lon": 37.987667408616616, "alt_km": 378.9284138136636, "timestamp": "2025-12-09T11:33:53.576463+00:00", "meta": {"OBJECT_NAME": "STARLINK-35965", "OBJECT_ID": "2025-271Q", "EPOCH": "2025-12-09T04:00:01.998720", "MEAN_MOTION": 15.65538507, "ECCENTRICITY": 0.0001011, "INCLINATION": 53.159, "RA_OF_ASC_NODE": 204.4763, "ARG_OF_PERICENTER": 107.2407, "MEAN_ANOMALY": 120.2456, "EPHEMERIS_TYPE": 0, "CLASSIFICATION_TYPE": "U", "NORAD_CAT_ID": 66631, "ELEMENT_SET_NO": 999, "REV_AT_EPOCH": 367, "BSTAR": -0.022423, "MEAN_MOTION_DOT": -0.02015172, "MEAN_MOTION_DDOT": 0}, "tle": {"line1": "1 66631U 25271Q   25343.16668980 -.02015172  00000+0 -22423-1 0  9993", "line2": "2 66631  53.1590 204.4763 0001011 107.2407 120.2456 15.65538507  3678"}}, "geometry": {"type": "Point", "coordinates": [37.987667408616616, -19.107384200628232]}}, {"type": "Feature", "properties": {"norad_id": 66632, "name": "STARLINK-35973", "group": "last-30-days", "lat": -20.583590612862896, "lon": 39.28334173903639, "alt_km": 379.1526791755441, "timestamp": "2025-12-09T11:33:53.576475+00:00", "meta": {"OBJECT_NAME": "STARLINK-35973", "OBJECT_ID": "2025-271R", "EPOCH": "2025-12-09T04:00:01.998720", "MEAN_MOTION": 15.65538216, "ECCENTRICITY": 0.0001004, "INCLINATION": 53.1587, "RA_OF_ASC_NODE": 204.4722, "ARG_OF_PERICENTER": 99.482, "MEAN_ANOMALY": 129.9232, "EPHEMERIS_TYPE": 0, "CLASSIFICATION_TYPE": "U", "NORAD_CAT_ID": 66632, "ELEMENT_SET_NO": 999, "REV_AT_EPOCH": 361, "BSTAR": -0.022428, "MEAN_MOTION_DOT": -0.02015528, "MEAN_MOTION_DDOT": 0}, "tle": {"line1": "1 66632U 25271R   25343.16668980 -.02015528  00000+0 -22428-1 0  9994", "line2": "2 66632  53.1587 204.4722 0001004  99.4820 129.9232 15.65538216  3612"}}, "geometry": {"type": "Point", "coordinates": [39.28334173903639, -20.583590612862896]}}, {"type": "Feature", "properties": {"norad_id": 66633, "name": "STARLINK-35948", "group": "last-30-days", "lat": -22.046798849872648, "lon": 40.600588807313, "alt_km": 379.1921663882049, "timestamp": "2025-12-09T11:33:53.576484+00:00", "meta": {"OBJECT_NAME": "STARLINK-35948", "OBJECT_ID": "2025-271S", "EPOCH": "2025-12-09T04:00:01.998720", "MEAN_MOTION": 15.65533995, "ECCENTRICITY": 0.0001022, "INCLINATION": 53.1586, "RA_OF_ASC_NODE": 204.4673, "ARG_OF_PERICENTER": 110.0476, "MEAN_ANOMALY": 121.2718, "EPHEMERIS_TYPE": 0, "CLASSIFICATION_TYPE": "U", "NORAD_CAT_ID": 66633, "ELEMENT_SET_NO": 999, "REV_AT_EPOCH": 367, "BSTAR": -0.022318, "MEAN_MOTION_DOT": -0.02006593, "MEAN_MOTION_DDOT": 0}, "tle": {"line1": "1 66633U 25271S   25343.16668980 -.02006593  00000+0 -22318-1 0  9995", "line2": "2 66633  53.1586 204.4673 0001022 110.0476 121.2718 15.65533995  3673"}}, "geometry": {"type": "Point", "coordinates": [40.600588807313, -22.046798849872648]}}, {"type": "Feature", "properties": {"norad_id": 66634, "name": "STARLINK-35967", "group": "last-30-days", "lat": -23.502548750483133, "lon": 41.949224630107075, "alt_km": 379.38532970784763, "timestamp": "2025-12-09T11:33:53.576497+00:00", "meta": {"OBJECT_NAME": "STARLINK-35967", "OBJECT_ID": "2025-271T", "EPOCH": "2025-12-09T04:00:01.998720", "MEAN_MOTION": 15.6553577, "ECCENTRICITY": 0.0001022, "INCLINATION": 53.1587, "RA_OF_ASC_NODE": 204.4632, "ARG_OF_PERICENTER": 104.7325, "MEAN_ANOMALY": 128.5052, "EPHEMERIS_TYPE": 0, "CLASSIFICATION_TYPE": "U", "NORAD_CAT_ID": 66634, "ELEMENT_SET_NO": 999, "REV_AT_EPOCH": 360, "BSTAR": -0.02236, "MEAN_MOTION_DOT": -0.02009974, "MEAN_MOTION_DDOT": 0}, "tle": {"line1": "1 66634U 25271T   25343.16668980 -.02009974  00000+0 -22360-1 0  9999", "line2": "2 66634  53.1587 204.4632 0001022 104.7325 128.5052 15.65535770  3600"}}, "geometry": {"type": "Point", "coordinates": [41.949224630107075, -23.502548750483133]}}, {"type": "Feature", "properties": {"norad_id": 66635, "name": "STARLINK-35955", "group": "last-30-days", "lat": -24.945103902572068, "lon": 43.32688807516558, "alt_km": 379.48618351767345, "timestamp": "2025-12-09T11:33:53.576509+00:00", "meta": {"OBJECT_NAME": "STARLINK-35955", "OBJECT_ID": "2025-271U", "EPOCH": "2025-12-09T04:00:01.998720", "MEAN_MOTION": 15.65537346, "ECCENTRICITY": 0.0001007, "INCLINATION": 53.159, "RA_OF_ASC_NODE": 204.4594, "ARG_OF_PERICENTER": 108.3825, "MEAN_ANOMALY": 126.772, "EPHEMERIS_TYPE": 0, "CLASSIFICATION_TYPE": "U", "NORAD_CAT_ID": 66635, "ELEMENT_SET_NO": 999, "REV_AT_EPOCH": 367, "BSTAR": -0.022405, "MEAN_MOTION_DOT": -0.02013621, "MEAN_MOTION_DDOT": 0}, "tle": {"line1": "1 66635U 25271U   25343.16668980 -.02013621  00000+0 -22405-1 0  9994", "line2": "2 66635  53.1590 204.4594 0001007 108.3825 126.7720 15.65537346  3670"}}, "geometry": {"type": "Point", "coordinates": [43.32688807516558, -24.945103902572068]}}, {"type": "Feature", "properties": {"norad_id": 66636, "name": "STARLINK-35968", "group": "last-30-days", "lat": -26.37571497540951, "lon": 44.73809591470258, "alt_km": 379.65218788961556, "timestamp": "2025-12-09T11:33:53.576520+00:00", "meta": {"OBJECT_NAME": "STARLINK-35968", "OBJECT_ID": "2025-271V", "EPOCH": "2025-12-09T04:00:01.998720", "MEAN_MOTION": 15.65541907, "ECCENTRICITY": 0.0001012, "INCLINATION": 53.1587, "RA_OF_ASC_NODE": 204.455, "ARG_OF_PERICENTER": 104.6688, "MEAN_ANOMALY": 132.4027, "EPHEMERIS_TYPE": 0, "CLASSIFICATION_TYPE": "U", "NORAD_CAT_ID": 66636, "ELEMENT_SET_NO": 999, "REV_AT_EPOCH": 367, "BSTAR": -0.022494, "MEAN_MOTION_DOT": -0.02021029, "MEAN_MOTION_DDOT": 0}, "tle": {"line1": "1 66636U 25271V   25343.16668980 -.02021029  00000+0 -22494-1 0  9994", "line2": "2 66636  53.1587 204.4550 0001012 104.6688 132.4027 15.65541907  3673"}}, "geometry": {"type": "Point", "coordinates": [44.73809591470258, -26.37571497540951]}}]}